IRIDIUM 144             
1 43249U 18030A   25239.22605826  .00000066  00000+0  16603-4 0  9997
2 43249  86.3928  53.2794 0002230  91.5623 268.5828 14.34218144388003
IRIDIUM 149             
1 43250U 18030B   25238.95332500  .00000060  00000+0  14320-4 0  9992
2 43250  86.3927  53.3639 0002244  91.4072 268.7381 14.34218354387980
IRIDIUM 157             
1 43251U 18030C   25239.18165909  .00000048  00000+0  10093-4 0  9995
2 43251  86.3928  53.3150 0002111  85.0029 275.1407 14.34217874387992
IRIDIUM 140             
1 43252U 18030D   25239.20068731  .00000019  00000+0 -26923-6 0  9994
2 43252  86.3924  53.3207 0002068  94.7997 265.3435 14.34217765388053
IRIDIUM 145             
1 43253U 18030E   25239.18800281  .00000073  00000+0  19174-4 0  9993
2 43253  86.3928  53.2984 0002538  94.4721 265.6765 14.34218076387989
IRIDIUM 146             
1 43254U 18030F   25239.23874230  .00000073  00000+0  19144-4 0  9992
2 43254  86.3928  53.2905 0002455  94.3281 265.8196 14.34217798388005
IRIDIUM 148             
1 43255U 18030G   25239.20703004 -.00000014  00000+0 -12071-4 0  9999
2 43255  86.3926  53.3426 0002155  86.5297 273.6145 14.34217424388030
IRIDIUM 142             
1 43256U 18030H   25239.24508696  .00000043  00000+0  82555-5 0  9999
2 43256  86.3926  53.2261 0002641  93.9009 266.2488 14.34217547388001
